0 FENGYUN 1C DEB
1 31938U 99025CMP 26179.61919449  .00005689  00000-0  39248-3 0  9994
2 31938  98.9051 243.6674 0146130 144.5889 216.5141 14.97962848 20891
0 STARLINK-35224
1 65811U 25218W   26179.61915605  .00008492  00000-0  59164-3 0  9998
2 65811  97.3005  40.9251 0003406  78.5717 281.5893 15.05656192 41669
0 STARLINK-2647
1 48658U 21044W   26179.61915344  .00021798  00000-0  71138-3 0  9990
2 48658  53.1598 318.3798 0000813  96.6844 263.4250 15.31733956280816
0 ONEWEB-0337
1 49203U 21083T   26179.61914238  .00000237  00000-0  61460-3 0  9993
2 49203  87.8960 317.9571 0002090  97.0924 263.0443 13.13470871232412
0 STARLINK-35220
1 65661U 25211K   26179.61909577  .00002299  00000-0  16314-3 0  9994
2 65661  97.3009 222.0159 0001290  91.9105 268.2271 15.05662552 43734
0 STARLINK-37406
1 69199U 26114T   26179.61908814  .00049839  00000-0  89784-3 0  9992
2 69199  53.1591 146.9052 0001150  92.7920 267.3221 15.49328325  6554
0 STARLINK-32328
1 62489U 25003C   26179.61905176  .00010547  00000-0  39208-3 0  9991
2 62489  43.0028  22.7693 0001409 254.5816 105.4880 15.27593261 83639
0 FENGYUN 1C DEB
1 30608U 99025AMP 26179.61903476  .00001152  00000-0  46873-3 0  9993
2 30608  98.6885 246.7912 0012839 318.3861 204.0156 14.29420589  2641
0 STARLINK-33935
1 63791U 25091S   26179.61901658  .00015647  00000-0  57704-3 0  9993
2 63791  43.0020 146.3861 0001356 256.2986 103.7714 15.27572519 65973
0 STARLINK-37300
1 68682U 26077W   26179.61901389  .00019752  00000-0  61250-3 0  9995
2 68682  97.2855  50.7884 0001763  93.2090 266.9355 15.33447750 12165
0 STARLINK-35293
1 66012U 25232H   26179.61900666  .00028317  00000-0  96386-3 0  9994
2 66012  53.1609 308.3470 0001073  90.5884 269.5240 15.30223926 40422
0 FENGYUN 1C DEB
1 30447U 99025AFJ 26179.61897971  .00007849  00000-0  15910-2 0  9992
2 30447  98.9652  61.8572 0054443 146.8558 244.8014 14.60596636  9722
0 JILIN-01 GAOFEN 2D
1 49256U 21086A   26179.61897593  .00004954  00000-0  29859-3 0  9994
2 49256  97.6492 302.3330 0034590 105.2631 255.2426 15.10737664262442
0 IRIDIUM 138
1 43071U 17083B   26179.61897198  .00000008  00000-0 -42259-5 0  9994
2 43071  86.3986 316.9331 0002081  87.1847 272.9587 14.34217555445773
0 STARLINK-3910
1 52586U 22051BC  26179.61896820  .00001054  00000-0  84346-4 0  9990
2 52586  53.1608 340.9754 0001186  85.4001 274.7126 15.08832063228330
0 STARLINK-3649
1 51980U 22025AA  26179.61896743  .00001027  00000-0  82602-4 0  9995
2 51980  53.1602 260.9741 0001075  82.7054 277.4060 15.08831769237804
0 STARLINK-4027
1 52601U 22052D   26179.61896606  .00001093  00000-0  86743-4 0  9997
2 52601  53.1598 140.9746 0001422  84.6086 275.5067 15.08832913228407
0 STARLINK-3054
1 49167U 21082AP  26179.61896329  .00000155  00000-0  20782-4 0  9993
2 49167  69.9999  14.7579 0003024 269.3149  90.7664 14.98325747263795
0 STARLINK-4351
1 53193U 22084E   26179.61893010  .00000123  00000-0  12442-4 0  9993
2 53193  97.3034 238.0291 0002235 113.2726 246.8738 15.05651924217015
0 STARLINK-4566
1 53693U 22105AX  26179.61892522 -.00002391  00000-0 -16185-3 0  9997
2 53693  97.3002  59.2398 0002662  72.9847 287.1672 15.05647351210001
0 STARLINK-34021
1 63940U 25098Q   26179.61890730  .00003893  00000-0  33379-3 0  9996
2 63940  70.0020 354.9567 0002588 267.1395  92.9468 14.98336142 63163
0 STARLINK-34394
1 64669U 25139F   26179.61890532  .00034929  00000-0  10398-2 0  9990
2 64669  53.1594 329.9630 0001250 110.4145 249.6992 15.34409417 57298
0 STARLINK-4421
1 53488U 22099Z   26179.61886693  .00004316  00000-0  30240-3 0  9998
2 53488  97.3045 299.2127 0002513 103.8469 256.3038 15.05704064212747
0 STARLINK-35633
1 66162U 25240S   26179.61886112  .00025333  00000-0  86418-3 0  9998
2 66162  53.1582 267.4456 0001052 100.6941 259.4178 15.30213154 38978
0 QIANFAN-111
1 68638U 26075C   26179.61885837  .00000067  00000-0  85460-4 0  9992
2 68638  88.9901 319.8243 0002018  96.9190 263.2191 13.51009617 11350
0 STARLINK-31594
1 59332U 24057N   26179.61885299  .00000860  00000-0  40799-4 0  9990
2 59332  43.0016 291.9032 0001190 253.1638 106.9083 15.27570980126676
0 GLOBALSTAR M054
1 25885U 99043C   26179.61884837 -.00000099  00000-0 -70369-3 0  9991
2 25885  52.0154  44.0226 0005207 106.8713 280.9565 11.39226547161952
0 YAOGAN-36 03C
1 54376U 22160E   26179.61884675  .00008874  00000-0  36899-3 0  9991
2 54376  35.0091 267.6594 0006297 157.0167 203.0830 15.23028131199792
0 STARLINK-11264
1 60906U 24154D   26179.61879124 -.00002911  00000-0 -19168-4 0  9994
2 60906  53.1591 304.6721 0000968 103.4951 256.6175 15.69718046105933
0 STARLINK-36937
1 68113U 26044N   26179.61875226  .00021027  00000-0  65183-3 0  9995
2 68113  97.2832 139.7673 0001924  99.8290 260.3170 15.33443815 18589
0 STARLINK-33997
1 63928U 25098C   26179.61874012  .00003908  00000-0  33519-3 0  9990
2 63928  70.0015 354.9571 0003081 267.6466  92.4340 14.98322520 63182
0 STARLINK-6094
1 56122U 23046AF  26179.61873784 -.00001005  00000-0 -27003-4 0  9994
2 56122  43.0021 251.9283 0001689 270.2757  89.7901 15.27554190179035
0 STARLINK-35599
1 66102U 25236S   26179.61871437  .00024064  00000-0  72099-3 0  9991
2 66102  53.1615 307.5370 0001218  63.7267 296.3861 15.34403039 39881
0 STARLINK-35020
1 65340U 25189T   26179.61863446  .00014912  00000-0  49111-3 0  9992
2 65340  53.1594  50.5594 0001518  86.2217 273.8958 15.31713799 48051
0 STARLINK-37761
1 69200U 26114U   26179.61862884  .00038384  00000-0  69435-3 0  9995
2 69200  53.1604 146.9003 0001215  87.6512 272.4636 15.49327614  6557
0 STARLINK-37788
1 69338U 26122K   26179.61862615  .00041378  00000-0  75832-3 0  9993
2 69338  97.2845 209.2691 0000660  83.8458 276.2868 15.49195551  3932
0 ONEWEB-0610
1 54673U 22166AH  26179.61857438 -.00000087  00000-0 -24187-3 0  9991
2 54673  87.9247 241.7068 0001737  80.4124 279.7206 13.21825016172966
0 YAOGAN-34 02
1 52084U 22027A   26179.61853737 -.00000072  00000-0  30456-4 0  9999
2 52084  63.3952 171.7387 0053045 353.6428   6.3919 13.45460413210452
0 STARLINK-4495
1 53552U 22101AB  26179.61850605  .00001116  00000-0  88214-4 0  9998
2 53552  53.1599 285.9758 0001142  84.6593 275.4529 15.08829219213703
0 STARLINK-30371
1 57735U 23131D   26179.61850564  .00001986  00000-0  81734-4 0  9998
2 57735  42.9997 273.4706 0001422 267.2585  92.8104 15.27560627156795
0 STARLINK-3071
1 49147U 21082T   26179.61849639  .00000034  00000-0  10620-4 0  9999
2 49147  69.9998 334.7669 0003096 268.7080  91.3724 14.98329585263588
0 STARLINK-30107
1 56287U 23056B   26179.61848084  .00002819  00000-0  11194-3 0  9997
2 56287  43.0034 284.6888 0001466 268.2542  91.8142 15.27572283177264
0 ONEWEB-0212
1 48791U 21045AA  26179.61847933 -.00000141  00000-0 -40738-3 0  9990
2 48791  87.9008 256.9113 0002074  99.6546 260.4818 13.15550696245935
0 STARLINK-36036
1 66608U 25270W   26179.61846812  .00012484  00000-0  46221-3 0  9990
2 66608  42.9986 149.4777 0001758 267.6615  92.4036 15.27593939 34519
0 STARLINK-35244
1 65829U 25221G   26179.61841371  .00018016  00000-0  59085-3 0  9994
2 65829  53.1593 295.5070 0001204  72.4987 287.6146 15.31703629 42995
0 STARLINK-37700
1 69215U 26115E   26179.61841293  .00035908  00000-0  65831-3 0  9998
2 69215  97.2822 196.7147 0000579 143.6021 216.5270 15.49214616  6422
0 STARLINK-31049
1 58543U 23192N   26179.61839455  .00004322  00000-0  13894-3 0  9997
2 58543  53.1588 265.7484 0000954 103.2084 256.9025 15.34406603142995
0 STARLINK-5276
1 55399U 23014J   26179.61837362 -.00000197  00000-0 -87448-5 0  9997
2 55399  69.9998 144.6765 0003528 266.0565  94.0191 14.98329342188673
0 STARLINK-34303
1 64168U 25112Y   26179.61834035  .00003148  00000-0  22197-3 0  9991
2 64168  97.3015 229.5326 0000982 116.0318 244.1010 15.05659822 60001
0 STARLINK-32360
1 61007U 24158T   26179.61833134 -.00001836  00000-0 -43246-4 0  9991
2 61007  53.1598 253.6630 0001103  87.8873 272.2256 15.34383883102799
0 STARLINK-30478
1 57911U 23146W   26179.61831382 -.00004286  00000-0 -14625-3 0  9999
2 57911  43.0029  47.5317 0001810 260.4968  99.5679 15.27590588154022
0 STARLINK-34284
1 64212U 25117K   26179.61828637  .00019181  00000-0  65781-3 0  9997
2 64212  53.1571 244.0500 0001071  95.8005 264.3118 15.30212312 61518
0 STARLINK-35645
1 66124U 25237L   26179.61826412  .00021282  00000-0  63920-3 0  9991
2 66124  53.1571 243.7023 0000948  89.4672 270.6439 15.34401003 39601
0 STARLINK-5345
1 56517U 23065Q   26179.61825981  .00001187  00000-0  52675-4 0  9991
2 56517  43.0037 306.1086 0001337 270.5144  89.5555 15.27561416173561
0 STARLINK-33943
1 63884U 25094W   26179.61825118  .00002308  00000-0  20115-3 0  9991
2 63884  70.0023 314.5891 0003464 264.7865  95.2899 14.98334987 63826
0 STARLINK-1591
1 46045U 20055U   26179.61824782  .00002544  00000-0  93700-4 0  9992
2 46045  53.1617 331.3248 0001074  91.1983 268.9141 15.31707505325859
0 STARLINK-36673
1 67660U 26022N   26179.61823417  .00005120  00000-0  16083-3 0  9993
2 67660  97.2840 212.3975 0000976  92.3924 267.7430 15.33440211 22576
0 JILIN-01 GAOFEN 3D 28
1 52445U 22048C   26179.61821645  .00170357  00000-0  83466-3 0  9997
2 52445  97.5665 294.8131 0002202 261.7368  98.3650 15.81789805231332
0 ONEWEB-0055
1 45443U 20020V   26179.61821333  .00000590  00000-0  16284-2 0  9993
2 45443  87.8888  18.7916 0001843  90.6572 269.4767 13.11418325304115
0 TIANMU-1 20
1 58661U 23208B   26179.61819265  .00007687  00000-0  24407-3 0  9992
2 58661  97.4458 296.6246 0005557 283.6588  76.4035 15.32930754139177
0 STARLINK-30427
1 57865U 23144B   26179.61814295  .00000015  00000-0  10061-4 0  9994
2 57865  43.0043  18.6400 0001411 268.4373  91.6317 15.27575191154567
0 STARLINK-32094
1 59696U 24086Q   26179.61812250  .00010524  00000-0  39180-3 0  9991
2 59696  43.0001 153.7352 0000467 238.6369 121.4437 15.27545512121075
